{"spkid": "20450894", "covariance": {"data": [["2.161436809474052E-16", "-4.874590848129002E-16", "-8.649120086002034E-14", "-9.214865586265449E-14", "3.908514295781169E-14", "-1.497089570805884E-14"], ["-4.874590848129002E-16", "1.099955296734827E-15", "1.995300255119096E-13", "2.066947731606661E-13", "-8.582689868864081E-14", "3.425057599923308E-14"], ["-8.649120086002034E-14", "1.995300255119096E-13", "7.388397666983499E-11", "1.525167468582695E-11", "2.436715917676091E-11", "1.118035815584042E-11"], ["-9.214865586265449E-14", "2.066947731606661E-13", "1.525167468582695E-11", "2.923791048450981E-10", "-2.868695269360174E-10", "2.870610014194692E-11"], ["3.908514295781169E-14", "-8.582689868864081E-14", "2.436715917676091E-11", "-2.868695269360174E-10", "3.110124656254165E-10", "-2.190034176324401E-11"], ["-1.497089570805884E-14", "3.425057599923308E-14", "1.118035815584042E-11", "2.870610014194692E-11", "-2.190034176324401E-11", "2.57130593690879E-11"]], "elements": [{"label": "e", "units": null, "title": "eccentricity", "value": ".593490089572426", "name": "e", "sigma": 1.47018257691827e-08}, {"name": "q", "sigma": 3.31655739696274e-08, "value": ".9031198679090893", "title": "perihelion distance", "units": "au", "label": "q"}, {"name": "tp", "sigma": 8.59557890254257e-06, "units": "TDB", "title": "time of perihelion passage", "value": "2458254.215773282520", "label": "tp"}, {"sigma": 1.70990966090346e-05, "name": "om", "units": "deg", "title": "longitude of the ascending node", "value": "107.6667300679931", "label": "node"}, {"units": "deg", "value": "139.2785496161709", "title": "argument of perihelion", "sigma": 1.76355455153907e-05, "name": "w", "label": "peri"}, {"label": "i", "units": "deg", "title": "inclination", "value": "8.133469300934296", "sigma": 5.07080460766217e-06, "name": "i"}], "labels": ["e", "q", "tp", "node", "peri", "i"], "epoch": "2457906.5"}, "elements": [{"label": "e", "name": "e", "sigma": "1.4975E-8", "value": ".5945362606982714", "title": "eccentricity", "units": null}, {"label": "a", "units": "au", "value": "2.219303687948146", "title": "semi-major axis", "name": "a", "sigma": "2.6941E-9"}, {"label": "q", "title": "perihelion distance", "value": ".8998471719615718", "units": "au", "sigma": "3.3844E-8", "name": "q"}, {"name": "i", "sigma": "5.077E-6", "value": "8.145655005930143", "title": "inclination; angle with respect to x-y ecliptic plane", "units": "deg", "label": "i"}, {"label": "node", "units": "deg", "title": "longitude of the ascending node", "value": "107.5244819288393", "sigma": "1.7084E-5", "name": "om"}, {"title": "argument of perihelion", "value": "139.3874200808276", "units": "deg", "sigma": "1.7608E-5", "name": "w", "label": "peri"}, {"label": "M", "sigma": "3.9446E-6", "name": "ma", "units": "deg", "title": "mean anomaly", "value": "157.46920852554"}, {"label": "tp", "value": "2460672.277771625436", "title": "time of perihelion passage", "units": "TDB", "name": "tp", "sigma": "1.228E-5"}, {"title": "sidereal orbital period", "value": "1207.601181179499", "units": "d", "sigma": "2.1989E-6", "name": "per", "label": "period"}, {"label": "n", "units": "deg/d", "title": "mean motion", "value": ".2981116660124309", "name": "n", "sigma": "5.4284E-10"}, {"label": "Q", "units": "au", "value": "3.538760203934719", "title": "aphelion distance", "sigma": "4.2959E-9", "name": "ad"}], "epoch": "2461200.5"}